DW_LOCALIDADE;address_number;city;state;country;region_name
d26b3677b6a908a779f2c358ca896084a64d1e0034ce8b924799f2eae9335b51;10010969;Elkhart;IN;US;Central
d2b2a402bbe4de7820abf14c5087b23d56c2bcc448e3f554833f6e76499cdac7;10025237;Oakville;ON;CA;Canada
a1b8d55a1dafe70dcedebe1c98e44d90d2fd7183b384e9cf232f587e3a626dc2;10014469;Livonia;MI;US;Central
0845d4f60008493035921e3bea032ab871e6bdea3da11c7c4cb5912b05f985ea;10026291;Poplar Bluff;MO;US;Central
42261e64bc905f4756e6a6e9f451cb1377050cd71e8ab0075addbc5780109485;10022732;Lake Hamilton;FL;US;Southern
fa8b004515c022aa1913707c80211dbf4694542b52568c15b00cc636791bf861;10026348;Mebane;NC;US;Southern
d3795a072544bd938b915ffd61b0e3c05cde13b62a8c91570875484c3e63dbe1;10026560;Dearborn;MI;US;Central
b27f41478f6e5b86025cb55cfb63a62c4d7c37464a90225beeb69bdcf1714791;10025291;Dover;OH;US;Central
de8a0c1b0b78d91036d32d080561ac4707eb24f35c79522b601e290fb4864ca2;10023780;Asuncion;Não informado;UK;International
68bbef7a59d91e30ac2b805c18fe1ff11c799e4ad5f28281c1c4ac07fec330cb;10000473;Rancho Cordova;CA;US;Western
89c1030dea99ead900c7cdbe4e9c744bddc3774d2343146b8ec991443855db23;10025300;West Sayville;NY;US;Northeast
c6282f2812350e23e5c85bc6d9661f21c5c3091b9652eb28b8b5bbe24bcf3b26;10027572;Elma;NY;US;Northeast
a33059c3a779fd2ef7948246fff5e00380a98ef8e0fc17ff84fa53b9f07ace5c;10021996;Milton;PA;US;Northeast
0ac4cf9236d3a871d40bf15f1b166342921ba78b49b01c2c2a37c7fe5139f1cf;10024034;Edmonton;AB;CA;Canada
4dbfaad02a9d53812b45a2982794d4fa0eb2144e3aad6f5d10dd94e49c98e841;10025495;Birmingham;AL;US;Southern
4749a4654d04743933f36205b2baf661b0c48943a4aba96ef4c216af945cc627;10015793;Sacramento;CA;US;Western
cfc55b4d0927871a6d6bdc8c53aa7ccb7a6479a592e32666754e0f79276603bd;10016542;Greenville;SC;US;Southern
a3281c902bce4640aea0f9cc21c5b1273a63e152e674520580249604a66c54ba;10024499;Houston;TX;US;Southern
190d9f2a8a2150940f758b94eeb7e553068de3c57789c255105a043dfed0d7cc;10023511;Schiphol-Rijk;Não informado;IR;International
40012ff506b703ae541aaad7d4d32920a3e7ff389d3e4fa6952525935a0b2ebe;10020181;D 95326 Kulmbach;Não informado;UK;International
3a856a32022734b8a0f2a3683cdfd116c19ae5303beb5f5536c3ca63aac6484f;10018623;Laurel;MS;US;Southern
fe8565b7b7bf6855b0097babf896dd73e4422fdd3f1bf2c7afe2b068635453fe;10018371;00-394 Warsaw;Não informado;UK;International
7c54ff909d48686dfca455c01db98b5ce3fa0815243617784d3eb9e3feede6c8;10026062;Houston;TX;US;Southern
19db118131626b8c3ff28f5852c8438cb9ec122fc9f7d71dbaf2d515758fde2a;10021415;Indianopolis;IN;US;Central
1282cc8d58d067483445638293dfc648873f64b04097e79859d46604adbcd10c;10025238;San Diego;CA;US;Western
47246ba307b3c5d158c96b17081331f088bb81d9d72023d598da085f7aae99c1;10024550;Appleton;WI;US;Central
30e8dc1457dcca7b045cb75a125275364ff170a5d40c02876c805ee706095b9f;10025250;Ooltewah;TN;US;Southern
565fc5bdcdf93f88da162f8a8163cc3cc135343a9362542164c6d68f3b353feb;10006836;Quito;Não informado;UK;International
b0337f4371bc28ed87cef37eb36e0cbcaa4f9fbb3a38cde2a30aa5a7e5b3637c;10021223;Wayne;MI;US;Central
46d025803e4e9e7ca4db586dc8687d1d5cb72acddb1d83766b59122fc5be6b6a;10015824;South Bend;IN;US;Central
4cf472cb7023ae06ababd77af484e9fcef2fa48d67dc29548edcb7218415020b;10010912;Fort Smith;AR;US;Southern
ce817fb78ca882eaaa010191ae73236e9c745a1a595c69d30d0d30a68ec9c748;10025038;Mechanicsburg;PA;US;Northeast
3f8603f5ab589e5ba11005a419d7a1d80d7ab37834c7c5073b16cde06d47ef28;10027119;Não informado;Não informado;UK;International
f15ad87de74814d458e8ecab525ba8ea09576bd54f512b3ef8d87d63f9f5c4c4;10025302;Tulsa;OK;US;Southern
71290b2af2ea67e6ed1cbad79ae966ce50f74335f67e775094dee19ab3aac345;10011198;Framingham;MA;US;Northeast
8756a3cde97605bef655144c41637a7228aa677b0acf4d468ff98f840981808d;10012226;Troy;MI;US;Central
819689abc454e944e94ac9e4dc4b36a6d46c934f243d35b33cd4df1931e2effd;10025052;Songtan SI;Não informado;AU;International
585066f7da7e7ecaff01d9e43e3323db1d6df087f0b2826febe9ffb6ed7d2269;10025249;Memphis;TN;US;Southern
df72cc875de2fab1a907c669d1471e539ee1e848d03c93d2828f65639ed93752;10009669;Não informado;Não informado;UK;International
bfa1a165fa1cc95bdc5e0c794c5626847c162b5e49fa00c76f58de7557031d78;10008134;Petersburg;VA;US;Northeast
5f7a2ec7b73b036284e5b88edb1eeedada0f8e37be45dfbc2c4947b00c8488db;10022678;Richmond;VA;US;Northeast
c7fc0a4dc46185864bfb66ab81896632a19b3c514733dc7fcbd84885be1183c8;10023783;Pine Bluff;AR;US;Southern
40a5d823ba02040eb0471e8488b595ee1bd1ab779823aa39beb0f9d59b9bbda2;10023221;Overland Park;KS;US;Central
36e9963ae004440b2710f58e2a59fbbede9f304c8d6d5cd00f9891b8283db603;10026532;Garner;IA;US;Central
a54fc283876e9b611b2488cee3b8c56d3b4e04be0a79a43d5ad8d74474b22d11;10012761;Cali;Não informado;UK;International
2645bc709da3464d2219279d80a80df8fb0fb2d249d2fb293c49db2a16698987;10019879;Duluth;GA;US;Southern
9fcb1d353e16f27fbbd51931ce28dd820f1ce4559ae8ad009387b5498974a983;10020193;Não informado;Não informado;UK;International
fe4a75c323caddadd5c0ab9c1458928b4686aa0d980d0b6bd3b2ef244c6fd80f;10024255;Pontiac;MI;US;Central
0f529db6352588d89649cde04def45e8e6c4b97e20b2847db4f00f30b3b96700;10027356;Grand Rapids;MN;US;Central
347ada55ab5926222525f4ed5e13c4e88abdaf3fdb6fe432dd012c3593071335;10005006;Boise;ID;US;Western
f006e9b9d2aef4c344deb0a5c67ca7e61ffbd6684997cece0c20a4acb3519cf1;10025243;Longview;TX;US;Southern
b1ea7c896db29df03d24fea5a529df1a2614ef4261e4ebc74c492aa4b3de21fc;10018867;Flint;MI;US;Central
15bd4de79853dbf4eacb956000a5766154c7a0dd8ba26596f431174e25ca13df;10020962;Mercer;PA;US;Northeast
e2702fdabbdfdb24894d1cf0ea7250aed59b2a1ebc396002fe1f06ad4d261921;10023513;Stockton;CA;US;Western
4ee0f1f7d10051de5402afc2e5dafccdb56c676941ef8ca31ec534fbe1c087ca;10026055;Eau Claire;WI;US;Central
1b69af4f6936cd234e3274a349836be63c2eae827bb7d99e52ba048f9a20de22;10015275;Marshfield;WI;US;Central
45f6f655d391ec369251018b541f752cf2bd8784deff6e1d252234f95b470e90;10012235;Winnipeg;MB;CA;Canada
3e1eef8eafc22d6d6cb1c3bb7cf097a1cca969c66219c25a42f4087c0c5921d9;10023022;Surrey;BC;CA;Canada
1c52b103c5135865415e1d2704aca60a3bfdfc04dbe3d17ff8280325d8e4cbed;10021911;Te Rapa Hamilton;MS;US;Southern
48d60f95f5f7eb8ea3e09e677048e888cfe7f42b458ab9ad8e0e8810a58e7eb3;10007577;Stewartsville;NJ;US;Northeast
0b8ca741363fb81b96d185f985fbbf1f33d42658c77e1e62ddfac894a28a5bba;10024743;Enumclaw;WA;US;Western
04a3bdd5272a718db9f653ed135980b955d4677e477c41a51b5917b47958313f;10023235;Houston;TX;US;Southern
0055183319b2c7a69b5cbec43e3f9796607c4b19fc7865ec6b59b4046b6e4fa3;10002709;Albany;OR;US;Western
8378ddaba2e285dc194d7e0e1267b889d1bbb3c1700d38bb4bde5d417f09396b;10019420;Ruwi;Não informado;IR;International
962be017ccc49af1d8fdf834df7b951120533e33e800d09f74ea33665afbd4e1;10025287;Brookfield;WI;US;Central
ff6f8f620f42d2196f3fa9dd55397019d25f17c117a0f001aeeee927bc5113cd;10020445;Rapid City;SD;US;Central
fce90da262422291c0a96bbd8c663bd0436eeb8c2d789bcfc4ab58dd35071cd1;10026606;Dearborn;MI;US;Central
87b2fb32bb9e3372cf4f8a39415464834fab0738cdadb994928fdd8088495c89;10008602;Wells;ME;US;Northeast
3a5a340d228a62fed16bd4813df43639c01cfa467a61fe14ccbb8fec2f055e05;10026336;Columbia;SC;US;Southern
72d74dfc7777f1e921549a5c95a3afab1a210626f9fc3c099a8559cd8f9bd0b4;10000466;North Highlands;CA;US;Western
4416ee4353abac86703f35fb5e51101244f89c8900725fd363496a2f0c1b2509;10021184;Aurora;OR;US;Western
67ccf37876ced5af7dc898229d2a00dc1bc6336d988bfc867c780e4445e12e2c;10025246;Winnepeg;MB;CA;Canada
785eb006bc9bc7d074ac43f8e8d29c4ec8277dc1df18d3c334a4facdb25eed65;10012425;Oslo;MN;US;Central
5cd8aae6ab4077f5efe5492fd4802699f06fd9a7daf77f6f9e8d2f2e435deeda;10016548;Mobile;AL;US;Southern
393036953caade893505ea0e8d7e6118b49fd51421f163b388419fd8acc1ba78;10019400;Valparaiso;IN;US;Central
0f681b0047179172af160c8137d13755eda19fcb953f82503446dabf0e67d0e5;10025289;Fresno;CA;US;Western
3638a093c1e4247e81d2c4d628010da90dc08ab232f603fa64539c8758a1e7f8;10025241;Hamamatsu City;Não informado;AU;International
f992b20a2d52c2a4479abfae2e374919adb721c371984d67b1e016b61c65db19;10017585;Milwaukie;WI;US;Central
29c942d645107eaca3d131cf92740d364de11265a2ecf98082375b2ee69d2f29;10023023;Thief River Falls;MN;US;Central
a7beefb64cba13e6722b5bdf356c510a69c9273e3a4e26d47329a9243d2c254c;10009654;Brownsville;TX;US;Southern
7656149dfb73aaa64e7365ea0b149fbd2dd2578cf636d36887823b5a2eaee0bd;10025791;Prineville;OR;US;Western
9a421b80c4bb267953e98198fd0a4fec78ae084cdbfcbb9a497e7bde55e9fb77;10016609;Winnepeg;MB;CA;Canada
a4e48227636759b2f4db09e06259282200e83c397fcee1af1bcaeaf910b02aa7;10025242;Seoul;Não informado;AU;International
41872fa008c12c951df9068944b64109ef02aafadb9ef466be0bf752922f0581;10023524;Clemson;SC;US;Southern
cd9016c4229dfbbc9acce423fd90e35f12858ac1d684f1800e1aa85dba97ce8b;10009356;Cape Girardeau;MO;US;Central
48018335091dfa64abb9f3cd92c97bb8540df81aef2fc6ef66e4c1c8607d5642;10010914;Overland Park;KS;US;Central
3e2156cb1b623e1a594fb3475575b9287c081b40a74f983a28b5bdac41e2edf8;10000456;Edmonton;AB;CA;Canada
dd77f24e94ee398892b8b8989fef14f92cb2bf32eb40656bad2a4b9bbc9d573f;10021179;El Cajon;CA;US;Western
2510a7e93a17df69af7056f3af2f8726a1dfb838379da8f7952227076ef112dc;10019900;Sacramento;CA;US;Western
75f91ae1d4135c4bf3bc27ea947cb5101c0666494e97325d7155459f74d7ad6c;10024246;East Providence;RI;US;Northeast
bee58e144d02474fe1651f95231a898b0e8b97186396b2c69bf81aa64cf0b04e;10017553;Ottawa;KS;US;Central
3a0ed29d586a0a6342979ceb74bfa1edc1b574fe53fd54a3df2bceedf883dc2d;10019388;Ft Collins;CO;US;Western
ffbed7decfc29fd0a86a2152a1681e77e277a343fe75b4198d3044cfcb0b1048;10025285;Chattanooga;TN;US;Southern
f8a7431c688c6a93774874c8a842887fb61da496b61758767c0ec1d20e86563c;10013232;Milwaukie;WI;US;Central
cde723ec857fdcfb55b35031aebe26e3c45dbe29160129657a54cbacffff84de;10016549;Jacksonville;FL;US;Southern
d826516bcd8ae059e10d16eae152019256c25d8bb5dd0ec5d6d86731698771da;10023275;Portland;OR;US;Western
45bdcd4309cff2b6836c7e428c3cfce227e2d93980e9b9eb06b76afbb996a47c;10009679;Meridian;MS;US;Southern
fe9391f33990e88a582a835e74375696f37e4a1241bb2e998d792bb2f8c99aa4;10025771;Waldorf;MD;US;Northeast
044295f7461714ca690e9fd173975b4ec11ddd46bc31c2c830d977bf41ef505c;10020907;Não informado;Não informado;UK;International
bbb6a9b0f2c4436e1fdf49abf42dde85b1c23fc880f3ea471ea4abe071c1d324;10021422;Brea;CA;US;Western
70b43a2ecaef9f2abee2a02c62b1744b25edb594caf7a392c2a740707b740f13;10009697;Orlando;FL;US;Southern
f852f6c383ebca7ac6e2fe1b9f382f4827100938efce8cb47e45adeabe621867;10009642;Joliet;IL;US;Central
e0a39b0b10ba8bf32405ad18d47020039633abee153738cf03e061cc38502201;10025814;Houston;TX;US;Southern
b83f660b5762a0252bc19828cf7b322e3cf1ef1f2caac33115179d9d3b99375e;10025021;Depere;WI;US;Central
65aa4d6e6eff3fe2bbdead68b74c08015665d98f6f6403527b4992524c6cdb5c;10015495;Kansas City;KS;US;Central
3e83e9f1beeec2d208374d7369708b4ab746eca59ec31d6624276ebe4b724e37;10020715;Linares (Jaen);Não informado;UK;International
901b17f05c01fef8263ea789c7170e24ace12970f96a5a5cdc05e4e95d342d16;10000601;Creedmoor;NC;US;Southern
d3ae681c694905a9bbffcee1b362eeddc8c29cf5be5f6689116e6fa512de4d50;10000474;Des Moines;IA;US;Central
0b568a20811b38d71ff711fb1c1d6487f91576b708a18b24a8408c97c0995e9f;10027340;Salem;MA;US;Northeast
d0b82413c88dd9383d5dec89edd4611d5caba946321be2ed0acaec4bc31ef1bc;10009660;Augusta;GA;US;Southern
d5c48e7d46b2ded53ee317af6f74d726d7769c1a5073a3f5cb42dd36e0788bcd;10009643;Flint;MI;US;Central
ccfc4b5849c33e140b5ea178fd08fa83d70870f48857565ec3f7d4b03cf08e1e;10020931;Bozeman;MT;US;Western
438ac688fb52d4a7804711fdfe2b6f460f11957d4b6c134fc96291a7a6e10076;10004516;Lighthorne Warwick;Não informado;UK;International
11d33959d0973feb4ba73df02400c9db98605c2111399e2f997c2d49c55d36f5;10020413;Okarche;OK;US;Southern
e55c17db7906572c1a8032865b04fbcf14a71d8bd6989f49c168b286295b5ff4;10027381;Tumwater;WA;US;Western
82a5950f537d9743b78a60a5d05736bdc60d760052cc4957d9a288c87413e285;10006846;Modesto;CA;US;Western
927635b673a03f606f58faaa71f83d24a7625d7ed91729e297e91a5025cfd2d4;10019109;Sacramento;CA;US;Western
7e82963ac49c072163ef1eb441a248cf775909d8e6413019235998ccf9d0a989;10017072;Chicago;IL;US;Central
c329d9d2f4fdab28eefc95950a9cf35d6e496fb63ab457ad457f41774fdd1e54;10016784;Pocahontas;IA;US;Central
f092bd337c750e0f5e09141f8a8ca81e8e693684fdb57a257147d5e933e3cd24;10014540;1980 Santiago;Não informado;UK;International
5a0e10d0c81b6d1da35d8d939c62d5751649c32c3b24ee8d2e8831c1d4fd79f6;10014533;Aurora;IL;US;Central
ee414c8cd4430418ad3777665c1ac257113fe39bf462968facb8c96e2ed16189;10025022;West Midlands;Não informado;UK;International
addf65e9ee8ce0a3bdf3958c160587c08dd146650b59bc5025c1d83423fece46;10011734;Atlanta;GA;US;Southern
cdb7470b51b446cbfd0f64f699064e070608b5bc1e7b36b50def7086633c0b52;10020393;Fort Collins;CO;US;Western
ae5af49867f55610c42c457282caa68df1209bec9bb92cd258351f27e3b64276;10025558;Little Rock;AR;US;Southern
bf7364aeea894994d24a5e79fda1f52cb87710233fac8cca757f7676d91e88c6;10022746;A 5102 Anthering;Não informado;UK;International
7c8eb3f6374b0b6c6722938e8e6893b5c66ee6f452d563ba2bae1b55ea107fe8;10022470;Ormond Beach;FL;US;Southern
97e66a23764f68c80d93bcab0819e32a6846605ad0e9b5fb1d316a65ee67f674;10016303;Buffalo;NY;US;Northeast
c1700a1c7220c56b5706591da47e0ef4db4be64d4f6606c61df8898086096ea3;10018877;Beirut;Não informado;AU;International
e6753bb4998b0dc26c4c9b7fe3bf3cd911fd1587b611b3f175761a4da6a7ee2d;10022730;Warren;MI;US;Central
e3b0c44298fc1c149afbf4c8996fb92427ae41e4649b934ca495991b7852b855;"";"";"";"";""
647cae95f9abe3ffcd585d7c2a8621c786cc19d97a92d46b752820cdc30b10d3;10027575;Dallas;TX;US;Southern
79b6f7cbf64bb9a37a8cb74438d2f1fcb1ac5ae6ae3775a12517a4af8ca080de;10022755;Johannesburg;Não informado;AU;International
7ecff1ba0bd61106b22dd28c93c7084d33bc5e35089f1007451f03e8b601d04b;10021145;Brookhaven;MS;US;Southern
7697394cbe713d7ba7203d23732b01f9aeb02a78ce8409c33b874908d95cdb03;10022240;Mississauga;ON;CA;Canada
986a41bfcc8d23e9742bd4761663796130643d69f9a3bb8e9758ea1287388058;10011398;Eugene;OR;US;Western
62291747493f313d9831811d5e18f17e34db517ae52a866eb2ae0850929341f5;10024541;Bedford;OH;US;Central
0e9adcdf602db7cbe57ac3f64d8f8f98755f3f70ff68bebd534e4f90c0463733;10006862;Pearl;MS;US;Southern
e40f236190c267d266144d0619815a5053ebf017894038db0ad9c404c59cb8a7;10020390;Lansing;MI;US;Central
93202df2ec7081b28b47901b5c287a5a14c64d3834d2dfef64e198ca948c3d6e;"";"";"";"";International
dcca12262dca8c60ca2a569b0a7f5dc567ac2621dd90f7c58b983996e9b9daa4;10014471;Calgary;AB;CA;Canada
f470fee1da6e8adbf103ffb5858f3d3df1e427a3c8374ea1812233c83d2c26fd;10019678;Sacramento;CA;US;Western
80ad7661065d2e9c4174b513fbf9d5ef79aebb927363d1bbb4fc6fa26e5948a8;10025039;Mentor;OH;US;Central
ef3e10e3f3db08c654dec0e5ea5c2cdc668840ceeaf5c09ddcc9faa0c5568b55;10000480;Phoenix;AZ;US;Western
e547bf06d1cee37c1ebe30bcf9cb82c5b07f4a85b7f03cdf58a516d411e34d73;10009672;Phoenix;AZ;US;Western
87167db1ce585ad8a10e2aad0fc2fe341317eb7a5815c63f7802a48d03ad4de0;10023244;Cleveland;MS;US;Southern
55ece086ab39f09edbd7c256e89268ccc668aa5ebfb68b07854f3f517b7c0103;10015011;SE-132 28 Saltsjo-Boo;Não informado;AU;International
544385ee58be515a714d5071b0a88c401fe398d5c569d1a0a0e47435f7752534;10023538;Fort Worth;TX;US;Southern
15c82eca840048f0940c7b74b5bc94e73a4073a92652a281e7da5ad978853c2b;10000455;Huntington Beach;CA;US;Western
5be767947961fade2416c34f634ff5d6d64036fe33039e4945d4af54f5def584;10020449;Santiago;Não informado;UK;International
d7cc2b8b3bb19291735dce39ad5d5b25e581d0ec4f2fb4f1f8af420b91a6a0e7;10010935;Sioux Center;IA;US;Central
b1b5bd250deb770ad2564503c172543f2061ece2e3d613fe2a3df72bb0c7cf11;10017828;Cypress;CA;US;Western
bd514705784ae9199f433fefc707d1089e8a66283007d4624ee15e5589cd5e4f;10025023;Saskatoon;SK;CA;Canada
dfb97b584a8aef897ee47024054e18d2e470d11fdec6e8ae7fde62223fe18e45;10025515;Jackson;MS;US;Southern
4e0ae849f882b03ee3945da426110b38797f5137553db24cf7df30c6b987cbe7;10018868;Não informado;Não informado;AU;International
dc48da400d8bffcd05c45a54daa7ddd268eaff07fdf043b536b946d955807139;10014043;Guadalajara Jal Mexico;Não informado;IR;International
5e9004c0e8a83caa3804bdb17efaa0c04d889a01fe0315cbe61fee46ce2295ce;10025252;Elkhart;IN;US;Central
450a5440596911558274d394cd923429e8731779c94ca2c7642635dc0f5cad00;10021204;Toronto;ON;CA;Canada
27699450f1196975e5391e4d7190f3e00084dd759e92bed4bc3215514b8d8f40;10002765;Hialeah;FL;US;Southern
acf71801639c1012d808fcb91eb53b09ad23ca27667ded42352c1c013b3f2640;10023759;Birmingham;AL;US;Southern
296c04b3c27de160dbae5d74ba52e052c41aa490061ad202d67abec22af5e6da;10023715;Plainfield;IN;US;Central
cd17eb174e1ab131b8429c11c4ffd7c2ae2daff0404c5203ff62c89f00f853e1;10023785;Columbus;OH;US;Central
5718b5bcd1284cc192f977f7833b8073915695d72ad1c0d7952bf7a0735c1aa8;10022183;Breckenridge;CO;US;Western
26f8c584c05c994f1a53a8b1eb699644dad9feb765d6f7e72249ce5827202273;10007866;Sao Paulo;Não informado;UK;International
d62e15cd606f2b251d39420817723495ff5d6f66c7ff8f38c8ed1a5f2c0f1cd5;10008638;Milesburg;PA;US;Northeast
8e6435c10391725bee86bab3939309533e0a8f859e94158a15bcd834daecac71;10010886;Libby;MT;US;Western
23a1992ec49cf82fb32d66db35edb3bf0129de51f04fad1a951ac71a7065dde0;10005043;San Jose;Não informado;UK;International
3376135d95e57e00005ea9bf17aee1dc63f7544ae10c95b9732f49c20954aae1;10025248;Kent;WA;US;Western
79d6940d3fa632944f16855895a0e6f3de071374dffa87f643704c3a3934f209;10027053;Raleigh;IL;US;Central
23eb619d459a45b1d3e83e4c7257d4f370ee46f0d38005f6b9c4a9081ea55b34;10021911;Tupelo;MS;US;Southern
19ac919013608f42ea09a1859ef4822417ce007f1dbd75b944bfd4bf25d520fb;10021231;Middlebury;IN;US;Central
f85d07119ca38ef17cd738850c1731106d790184966092ce159b66b0893c6ab9;10016334;Overland Park;KS;US;Central
d81c2016b33e2c93678104ff6ff82574ecff7f0df8954ab4f9cc18cf81df8118;10009907;Elizabethtown;KY;US;Southern
1c8efbddc2444a2fb8d08bd960d7c7c744fe9dfb9e579147ab013704333aa1c8;10012715;Exeter;PA;US;Northeast
b0ef84fff8792d2d5cc5dbb685f1804e8b363047773edc61813d30b0596b661e;10009662;West Point;PA;US;Northeast
5151fbf0cf0f75b9bea2f7649cfd5f17893de0421f0bc286d116d71e39c409bc;10000460;Goodlettsville;TN;US;Southern
f8510257ea0b374f3af7d9b24b09fbe272d4648605b0ae344dc7e8bcc15c299c;10021977;Overland Park;KS;US;Central
db03f569212c683c296816b7a1fd00474946b983d33b0a22837afdc3c5552c01;10002746;Bensonville;IL;US;Central
322d1a675c54215dc23ce1a747e460f301c9025b4526d9c76c27892fd059a3a8;10019664;MOLINE;IL;US;Central
20a1c95cc2ce36dad160057c43c5d93be3965c7a266ebb29d7c8afd83bdb157e;10026299;Dallas;TX;US;Southern
c7e5e6c0bdd87e7a8b7b129705418fc0417ad6b0c6aeb962031d2c3cb9f16451;10025288;Furstentum;Não informado;AU;International
c7f2f5d47c3bf473076471b0cbce554830f9d07f0eeef28c7f54b61617e6ae17;10018665;Wester Chester;PA;US;Northeast
5cf3594d58afc34c6929f2df976a0a4c702102f8b3b9e2f2c31214cf44d8f35c;10020184;Smyrna;TN;US;Southern
c3c56bf15b5b2d4a9175865c400f41fcd7377b49f2113852322c9f95c96f1197;10006848;Fredericksburg;VA;US;Northeast
b4a6c2e293c1e0f3564b6da19063c69d559aa537e60a2c830990c8f5939c82fc;10020639;Tulsa;OK;US;Southern
36f717208b54f33e392bd8154bcd9f1cfa99d30da28b7feff6993754fec45d8e;10021139;Livonia;MI;US;Central
bf630edcc35575dda5debedf63b7d2a06d803abbfaed46cb6bdf5c5ef502229f;10009676;Kalamazoo;MI;US;Central
2f4b3585e27791efb988d4da29aadfc154c98226d0298d7b640e69b6d2006ea6;10000469;Montreal;QU;CA;Canada
bfd4c7ef5877bcdbd931501e5851af615f74a18df3830f02733672e458307734;10022978;Não informado;Não informado;UK;International
84f29c2f8275f5f79d1e078c84a13cb155971b23625106561aa4ff1d1a26ae6c;10025560;Cramerton;NC;US;Southern
cb6d8bedcd5e943c5038725ca83322f666a1109e5f0df92e00dec3daf0de41bc;10026355;Casper;WY;US;Western
ae074a072dc5677989f5dfc7b75b093ba53d670f24886606715a7c8572bbdfa5;10014047;Fresno;CA;US;Western
80a0f09349704966dde6e659a42ed365e161272558a72be3e1e5ce5c93204dad;10019913;Calgary;AB;CA;Canada
2724922fbe8d9b155a7113a967ef96e27ee69313bcb34f3faa0c57656cff8815;10025051;Anchorage;AK;US;Western
8e616883a2cf61e2ae4b1b222bebf9641b625fe9c5695159ba3fcbb262a65cff;10009885;Winnipeg;MB;CA;Canada
46a1157f50f1ea11a60c50d38b1ff62079edd04e67b725b6621cb700710e3ffe;10021418;Wheatridge;CO;US;Western
a70e140fb30451bca7ff2cd769fcdee1c63675e71de17ee1485fb07c958f6494;10023778;Hillsboro;OR;US;Western
a9d50f67948914c46d6232d53662a7c7465c242850554f7aa04926827f9b22e7;10018885;Pocatello;ID;US;Western
dbaf56c1933303e6fd9abe1707f3664780f35cb46feec383dbf2767332fd1bf6;10025063;Não informado;Não informado;UK;International
1b90067477d57d5c252cd3dec6eeeadcac13207e677d20cef183528950971b98;10018871;Livonia;MI;US;Central
21982f7f00e3f8de74212f1e47799482a125bd1546ad0bfa91131c1dfc0293c2;10018628;Tigard;OR;US;Western
a7dd5c05f49793fa7abe0ef1489152474be9c310a3316ae4459bc48a1fb5c953;10007121;St Louis Park;MN;US;Central
4049ec773eaf5b12bd50c6ed7dcef411a4b860739e9582dca7bf640135620bb5;10000471;Jeddah;Não informado;AU;International
cf6c9bd574b0d11552eb4af99fce75a8eef621b0621195b9c6fc8984ef87b6da;10021222;Buffdale;UT;US;Western
39386277639c21d9123a943855eb298916c420eb0109f4141c8b4e7b67e0c71e;10022450;Overland Park;KS;US;Central
7ff2fc65efca61db7d27347db2963025e12e9df49c10c12376e077776148262d;10022167;Georgetown;Não informado;AU;International
03a017208c23a336cbc6ac1772813533232c3f69ad409bf22ef4af6d2ba4b6ac;10009631;Corona;CA;US;Western
ae9673ce9f10b5fdd7f306734180490307e4d43f4ba7e373e4517ad499e365d7;10010906;Frederick;MD;US;Northeast
ef9b225d55fd29aaf9687a18a6fec81282c623c8066d0e4c51e6619ed89e8fe0;10002501;Não informado;Não informado;UK;International
b8b0b3734d27b4535df52772258071c57bf9386810183fdf77514dde5bb2c741;10025239;Não informado;Não informado;UK;International
2f2a1d86432e8db944aa13182e781b5b52948a7aa04874046579a4c8f5a4c1da;10008893;Yakama;WA;US;Western
bb167e3be723d0312739f2dc445c78f124eae32735efd488359e2ed96b881fb1;10022423;Cincinnati;OH;US;Central
a98dc487c5d40e059f34d03526c1abb57e0ad0502fa247e396ea63259467931b;10010974;Chippewa Falls;WI;US;Central
1bb05fc57b6da33b5ff82e668d3d75fab0dca1e53d4a2a596d121480b4ea5396;10024262;Oakland;CA;US;Western
7082934867edf1722c0e7a9c3ac5d1740b47e427fe82d95e71b2a71873ebe582;10022750;Watervliet;MI;US;Central
27056afde988f90afceb59df54889d3eb03889165a8f28b6359928e7761ae7a6;10014739;Tulsa;OK;US;Southern
70ad47d441f909dd573315bc423a6283a0da90e0eae496afe267731528180be3;10022456;Rancho Cordova;CA;US;Western
28993f8aaa33f05051cc2ae2e9a48cc97bf4e0b915671205643d9609e7e9b900;10014803;Grand Rapids;MI;US;Central
c612cf96b2e83745a6b8a087c7f5d5eaf068a000d62656bc06ba6b130bb4d4ae;10023003;Coldwater;MI;US;Central
06219a2123e9a59ec147f970075c283e355ed327436bff0dcea6021a40f02f79;10006093;Evansville;IN;US;Central
4c43e038d08c3dd42dea1a8bdc37dd175df37b03d058838cf0f4f7c16e5cbbc3;10019942;New Castle;IN;US;Central
6834746df1176877dd4cc2ed4914afc07c453ddcfc5626405fc072c5facbfad1;10021936;Louisville;KY;US;Southern
52d1b716aa117a5e5a67ff61ba46f577e872e290c935365019aa7bc971b9b4e9;10023793;Holden;LA;US;Southern
01796c3be5f9d2f3d5c2e287903883e7df3c166c167a6dbb25fa502a6e7d2d11;10004255;Seoul;Não informado;AU;International
d32757277661d7ef8528e052eb640465bb3fa47df6cffc45612427cb9a19969b;10017576;New Orleans;LA;US;Southern
900688b5389ab125edeb59de5adf7cb987c45cc01b1a8dc36f972f0be882bdb9;10024016;Kanagawa;Não informado;AU;International
abb89f3b912b29be47779d6fa7bdec617879dba410b5aa99bf7dc11ba72b327d;10000453;Não informado;Não informado;UK;International
c804ba72886492953269aa44763723ffc332699b085ca26791c5f514eb54ef5d;10025758;Oklahoma City;OK;US;Southern
dddd6461e513cc0d36c436837f79207de7ba6cc7ace3295321bf0c301945f102;10000478;Little Rock;AR;US;Southern
bdb0c37020667d7390c176f4166d8c2dcd359dd4b401fc36a474f5f2224861c2;10025296;Sun Prairie;WI;US;Central
243b775da41f3db5e4717f162d66923dfee83230cf67c9fa2fa440556b793243;10007309;Não informado;Não informado;UK;International
22ff1d357da873ab9a23c20becb1ebaf4049b0c93958deac026ebe1935015ec1;10025033;Billings;MT;US;Western
1d43f2bf772f2ee91efafa3118a2a8ad406ab5cf62dec0eef7e0c61a32262cd9;10009647;Sacramento;CA;US;Western
21a03fa2539acd8c97508655327bec2df4b7f21e326e1a5facbbdbac6c915623;10025032;Montreal;QU;CA;Canada
7e010765edd94e2dc711f1e1fdbc78f2fb56c85a27cc7bd6450dc67607298c3e;10018146;Fort Macleod;AB;CA;Canada
05e81f6bd020d9f362c3a9b30b5e9f91d841efe11b8f97d5a049734b4b58bfbc;10003720;Hermitage;PA;US;Northeast
5bbf0854703318cb9037b6b983c014ad487961acb53356896b035420d6fd8939;10020927;Sidney;NE;US;Central
f6392cef7690b6feb3262d7374d0529ade412fde9c578928b70c530d9d89d419;10013188;Charlotte;NC;US;Southern
2a414f8c6cfa17cb2a4917a602ba4afec802f30e45991056d599e50549961ac5;10014238;2215 TC Voorhout;Não informado;IR;International
954ceba5982ba651800740260a0388b5f535dd94915af3b1b0e45697563b5b7a;10015030;Anchorage;AK;US;Western
c1b7ede6a0ed44e67c1e4f737b63e9dae589b04859825d3cc9856ee1329bf898;10025919;Compton;CA;US;Western
228f1fa3236cc2b7b2d8702f52f0a73568652c42cb2bc2da9befd5a8e09e944b;10025552;Southfield;MI;US;Central
2097d4856105161cbe6ad009e1df3ff1ee4f65f5d93ff950c40cc13b88b88be9;10019897;El Paso;TX;US;Southern
3b21f690cee02a484453260815066f32ac6010341968261af58f8e5d360eeb43;10021412;Clackamas;OR;US;Western
3366123147dd48a725a27762e04e77ca4ca1bc1fe0e9ac0a35e93fe2f4bb110c;10009653;Mississauga;ON;CA;Canada
64e895e7f862d98639b8374d290927994f6f63a5b34ff8ef020d6e505255f8a1;10024009;Tulsa;OK;US;Southern
d61ee6b10594fcc4cfa984f03413773240d0d295b7c9a3a6e5da986a8e48ffbb;10022764;Ocala;FL;US;Southern
f8c5f45f50a52d2292a9eb79f1fa3f28e7ef69d03dde8573a10e0c5ce0d18dba;10014264;Springfield;MO;US;Central
c09d2340731572ae11bdb3d9f7552bfa9df1d182ddeacbe146926950f80e37e5;10008381;Puyallup;WA;US;Western
08ade5c8f2c1ca360fb767d87c4431260c71d8c9a3f6a95448a4b88c55e62be0;10012234;Hayward;CA;US;Western
f2cd6c51b45db30b640b7bc4e75e692d461980106b68fc26eddd977346b199b6;10024003;Benicia;CA;US;Western
1993e0930307e10629ae8cd386f5d3d733306993dbba6d281f1eddb3e83b334e;10013509;Joliet;IL;US;Central
4870be4c37d024629e56bfcfe1ec3e406960f109319fa1409b6a94cc3800aa7a;10025549;Shady Grove;PA;US;Northeast
2c919db529de545a65a900c602182324c73b981f944c1ffb365eac6e02c3bc0a;10022434;Placentia;CA;US;Western
9c20dfaedc18422a9b32d217572fd0ca64b0aec539fe4fd72555c4565a6f2a28;10023212;Medford;OR;US;Western
b30eeff06a6c70582c808b81d5a85579c80c3e6af3ae8f184e17a4832cbaa430;10023447;Tulsa;OK;US;Southern
002f76fab213f7b693a1e4ccd95a384f70961fdc313663174c262f5492698375;10007123;Little Rock;AR;US;Southern
61ab73cc6bcb9dff483aceb2898d316eaf440ce704a04a9bc98c7a9e430041a4;10025034;Corona;CA;US;Western
4515804020ec2816ebf73a1977bea264007b177801143f32b3207c0524a985e4;10020909;Canton;OH;US;Central
8e0de36a8e754970a814de50a3ac1e38486a1484bd3a4d4c8897241cf76f274f;10017036;Eagan;MN;US;Central
fa6e81d70ffd2fb01ea90d2078d49cd8416accddfae37bf07ca6e88c6f5cc9fe;10016047;Nashville;TN;US;Southern
84e20819b6fff042c38db66e0a0d3f98ba61ac34521f3ff592b4a79b11f08188;10000461;Boucherville;QU;CA;Canada
da31b2cc704c1d23b547795216a9a7bb27b703ee43f025f3870f9779e22ccb56;10009156;Attica;IN;US;Central
361a133f2de1feac53bf733328a6a627cbf5074ab4910801cfca603e4d4d0263;10007566;St Joseph;MO;US;Central
6ce55ecb8a905d36527b01686b2cc47b810a07f5b9c6c9a64a8b44ba2c6c24f1;10022444;Livonia;MI;US;Central
5eada9aeccc42d6e8fa21afe9e284986769d1459cb98f4380a35552324724ace;10019150;Jacksonville;FL;US;Southern
545b4410ba79678e3e1e4e530f807ad9bf850245422618944a6b3163f118a9b1;10009633;Não informado;Não informado;UK;International
f695edde9997308f0d249ed85d1afc69bdfb217b386b98c24765ec43211e4f49;10023489;Sacramento;CA;US;Western
99a0e8a7b012969560ea2c5eb1259be9fe578cc9302510f8664c344b5c5f6393;10011521;Okolona;MS;US;Southern
4f235d6342b69b3aa8f464fc9e377ad7e679feb3acd457b566782e1a9c03ca25;10002489;Villa Rica;GA;US;Southern
7cce0d7dd1f1b0f7c90a9d1dcca0522febce58e606c5a29b2de9b52d1f41afc2;10014495;Clackamas;OR;US;Western
44f412896bcd7f9552b742e6dcd90538d043cf04c45075ba8ca28c6cb576847d;10009985;West Jordan;UT;US;Western
c9653b2d3eab8f5517279827221d22d26cabb7f94a5769e20d8e33f57ca2de19;10018580;Beaumont;TX;US;Southern
51abe4baf148972a6b57322882f17cce8d427f839844c6aa92166b41fdca6e9f;10020914;Calhoun;LA;US;Southern
d28d49da71dd544da9fab68f2b38655e8fc5777fc3926d0aa56077b275b4a5ff;10021472;Surrey;BC;CA;Canada
338a6edb539c753a3564c2f9789ea5e3615644712a9569702052c9f30ac426b8;10016045;Monroe;WI;US;Central
2475a60e03938cb6f05a0214c21b5ad38676e91ec5864b1d0e1508ef7fb39aa8;10016858;Beaverton;OR;US;Western
627ad44d719bb5ae03783ef9cf92842045557b050c68555f9426c770f3822286;10011997;Roanoke;VA;US;Northeast
2de1434a6603507ca70f52ce1f27c55bd93050f41fdf7951b1767ed30d7b2076;10004245;Portland;OR;US;Western
4d460529d94297549b49c5c67c421c3b8dabfd25978dcbf9cf1a3e5a8c8fe895;10026009;Não informado;Não informado;AU;International
0231f6e9d7cf53d8f9e04c5c737627ec32b5ec39cb72335791fa8dc1197ab920;10016564;Traverse City;MI;US;Central
11e2e5efdba708778e2f1b7ed449a821c232a5a8b6fa2cf84210a1052d407cef;10019880;Somerset;NJ;US;Northeast
b6877f5b60ecce651f543deb72086d4493d84de04baf6d111175ef0581ae03e2;10018363;Panama Rep De Panama;Não informado;IR;International
928322de31ac6631c9dc246c9d8a2b213ec620ceac8b936899b4eb1520334bc3;10022687;Burnaby;BC;CA;Canada
8945bfacc92a4f2f64a0d64581667faefd9084698edbeaf8f57f47bffcfe2126;10025778;Pomona;CA;US;Western
e4aeda082456b0046f824a1679701a5b8644a1ac5b1f9c03db439dab4422b9b7;10018603;Dubai;Não informado;UK;International
162d58c48f232a2bff28917efc5a31e70c5599926e0218d6984a8e4aa1f34119;10024524;New Hampton;IA;US;Central
9d6e437c6858f5a7cb14d9275fa45709ee03ed79a7a84151e426c5993d873600;10019682;Lennox;SD;US;Central
30938dc55b4910346059c546bdf9f2eb15ce1780d58640f92b2f6352374ed667;10020672;N-0598 Oslo;Não informado;IR;International
22e8f3ab633655df6bfe8bd6bf85e840cd40e3e73453a9fdf70f7a498e442f41;10020915;McHenry;IL;US;Central
7b8b68db7853ce9180d134ff871b202f48a4c89fc2907f14f70e598164681ea6;10026522;Fairmount;IN;US;Central
93906d72f6667848e163cab3bc985dd4bc57599ced7aeec551a686976ad5257d;10010698;Gardena;CA;US;Western
9dd883e9a4d9d30b533a567765c7e98b43760d93507807bd5f169ceac6ec9d64;10019617;Spring;TX;US;Southern
9783ad5fef4bf92020b1e2fb8e478abd1e84ad64ff3db29dcf5e76009d1ffb03;10024999;Andover;SD;US;Central
e61449948adbf694641ab1baaee561aaf82a4d75e4d326e855b8afe655d9131a;10009606;Kilsyth;Não informado;UK;International
248f69c169f46e7e7d05aa033dc26d41d3a8ad4016cb6ca5067361d71846bbc0;10020446;Pontiac;MI;US;Central
098b205e105b6486bcb6870eb865be609f55e618082a5794d02d298d05c9a963;10000472;Van Nuys;CA;US;Western
a8afb2964f93df782383f90e2418c2578d997b328028294441731dca098b311a;10015783;Philadelphia;PA;US;Northeast
a850bf9908973261988fb98c7330d09c0b365bb71d7dfebe73b6c53808909637;10022431;Vinton;VA;US;Northeast
76a1630f731d35a50a4da6e2bdc405df2f542df8a7ed0317db42188c7a845dbd;10020192;Sacramento;CA;US;Western
c2bb8b74d94bdb916ad7c1b32fa20aa444588dd75dd4d13354166a6c58c1bef9;10025284;Hayward;CA;US;Western
88425dd55e52024e22339a85f6915d3a0954271218da7855370685b5c3284d99;10025036;Kansas City;MO;US;Central
4405f1f04f0a80b8752369c6558bc2ccfd70e87e48cf16f6f53315994bd32a4c;10024022;Irvine;CA;US;Western
6372b3628c006b1e2a6bf7366e7fdc9bf8a5d9b8b3e238709d44a998aedcff2f;10008596;Springhill;LA;US;Southern
2d2b3bf396f8188bb1379b3d8959361004673c9fb9526e1b14d4e5a2cae6baa6;10017290;Bogota;Não informado;UK;International
9b0c7a29f42ee272d0ac0ac1080b53a9ccf68807c00c3d8b0d40f9bb6747b0db;10020662;Jakarta Utara;Não informado;AU;International
760277a629f855d18213ebbb7a5af6254f31e3d7bbff3687420421584b0dd2d9;10023516;Miami;FL;US;Southern
4c9bd1c84a3675a91d73a43c9d1b88c6627f8e89415beac6a1c0d64f3a0ed47b;10027348;Tampa;FL;US;Southern
32e0ba075644b3de60b4c39a67c52e9d5731d254fa60b726d5ce695e6a037032;10019909;Shawano;WI;US;Central
76a503ba2efc3403dddf2791e2b0bb786360ef084ed53633c1947b884b93746e;10025571;Des Moines;IA;US;Central
5dd72afdf7f2ed58082e21c9c9288a3cbc14f7e4575cecc823809c8588175087;10010884;Boucherville;QU;CA;Canada
b18898f4c453868038f20dc56093b9e5fe499584b47d6d113596306ed320b681;10025025;Auburn;WA;US;Western
2de970b2c50d938fbddfdc139ed34959ca925407726f28c711359fc836404500;10009657;Lewiston;ME;US;Northeast
d80b8f7f815947fd33de5c5ae16fe15916e4cf00f377c632e14359f84e12baeb;10011979;4100 Porto;Não informado;UK;International
35c1f1e00ce28ffd09356446b454e85a105d23fe182f2f83fd2e9256127def43;10024725;Jasper;TX;US;Southern
25aa2205f2b72976e034585c33b1af23c36717d7816d6675d3987a79a91796c8;10018644;Overland Park;KS;US;Central
632fdf3c05c84c9187674fe8a3f57e2a148d742008eab61f01abb02c50c5449f;10003795;Baton Rouge;LA;US;Southern
8efc41f1a6454f1669f2989095de37f3aad475fbd8816166d4694f460e169046;10022252;Crestwood;IL;US;Central
d7d04fdd229d9beb6b060cbb76fa1312de6b7258ce9dffc87f643f7ca6533f3e;10027560;Odessa;TX;US;Southern
aaa399b14990f2fb43adb50b37039f61b455c530e0c7c5f0019d7234fc0a2b6d;10025769;Redding;CA;US;Western
8f256732ff3a5fa824a938181e27fac86a097379f48a7b1d0d92796748137ff6;10025049;Milwaukie;OR;US;Western
59b6957c7c044fc4fe1fa8566eb397b80c8461106f0cf4a3c9ccb9591a2a9a5e;10013472;Indianapolis;IN;US;Central
6db9ad45751d1b38f10fe8119c00d17abf21702dac225ca7c5cbe936db233c5c;10011724;Ingersoll;ON;CA;Canada
dee5aa92b2b5d760089a069758018fe6b505b2f903554e037b3d0592146934a0;10023471;Odessa;TX;US;Southern
5bcc222fe562d89c118dbafd55d1058bd2ef7b42cae6a7e98a073c44f6b71f51;10021668;Independence;MO;US;Central
32305d3e768e119cfb362ac674fb485f98bf84bb3cc2f3c5928e2f7d7bd2548f;10011981;Missoula;MT;US;Western
17f4019da50b6b76a416d4524142bc1102f00fa07518a4cad0eb3601aab09b22;10023509;Tampa;FL;US;Southern
173f3c817e8bee01aacbc5fb8ab84e45d29ace629f17760812bbd68795f74d3d;10026521;Quezon City;Não informado;IR;International
759ce9d02d542441e7dcf7135564c0835fad0cd14c3d44b141f68cf0f86aa9ed;10021158;Surrey;BC;CA;Canada
930b3016e667120fb045dce78bc0a747e946744e8fb2d5262a81f3b1fe58a772;10026868;Valencia;Não informado;UK;International
c44d2e7cabb3fcdb6fa7671e6ba6d9636af7a898f956fd43ad8d90bc550f8528;10022168;Cass City;MI;US;Central
2776452da28ae61bd8e93a5c2359cb534d2e61f4efdf992d8863f03a5639f20c;10009650;La Paz;Não informado;UK;International
be32161b7007477e756b48787f5d172fe244d1d2a110daac4aadc3174b91aa83;10024260;Spokane;WA;US;Western
0278e8f25abb9264e92dd2a3c31468040d4b255804593aea9b6acd7f573e65f0;10023703;Istanbul;Não informado;AU;International
6b8c127a3551702cd43733372bed21c1399886bc7d3bf54bafbdae6d61d5b1e1;10025299;Montreal;QU;CA;Canada
05d30bf6c254a1e59d9e15f50d3cb91a8cbbb7602a1675c17276c45313e98bba;10014779;Fairview;NJ;US;Northeast
7fecb06c21181d522b86fcde0ad620dc1ea2eca565d9bee5c89e43d5131459c3;10020448;Regina;SK;CA;Canada
39ea25d928c1d14183332dade048ac0f62ed098bafecf194e5bc9d46fc1a15bd;10023760;North Hampton;NH;US;Northeast
3b2793c3ecfdb860464a45dabfa6ac15fc930a35584731ba4e3ebede72b13ac9;10007120;Rexburg;ID;US;Western
1f504de556f9db41e638b590d4fef0e9fe93384792c8166a2e3198b47a33814e;10025251;Wooster;OH;US;Central
799ab2631e5d5552c9cc8b989fd6cb7d0413887db6903550814bd8e603431e2d;10014804;Shreveport;LA;US;Southern
d1497437089c3eaac66567bede5151139a13c0cf13eaaddaee1165756769199f;10019410;Edmonton;AB;CA;Canada
65ef2a76a8309686ba211caf864f7c79a8e211f82fb370f9aca2bc9c941cfdcc;10026839;Greenwood;MS;US;Southern
9ba86b102fb86859539b6c8a8967d0871d7b5238cbaa08e87b3c582ac3e4f834;10002240;Medford;MA;US;Northeast
0834b189848ff6d01a338eec06ba046bc4eadcd821c11fa2ed9ddbb6303599fa;10004256;Portland;OR;US;Western
740248f4e686cfb163eac8ffd8154c116859a50613468183b26d3cc762da6311;10017638;Roanoke;VA;US;Northeast
024b90e491ca10eaab2a878ea7cc975e4765cb62344275fcb3aa4917faa54d60;10017054;Newport;MI;US;Central
23d7a61e189b19a1a7faa8b533535f2dee9f8ffaecbd38ac9a25062c10507d6e;10024477;Santa Cruz;Não informado;UK;International
be479721b3dbe9c9c9a3afe88df81a19347adc24ac53b4eb780bd3f7395c884f;10011732;Não informado;Não informado;UK;International
6a274b531e4995a0e1862fcf30f33a89aa741f7e80c7ed1146903e16addd3422;10007564;Cleveland;TX;US;Southern
b344c0da84793cca463497a19c3aa26f287ba97c8319d061e3ace6d28fb33cc0;10020684;Montgomery;AL;US;Southern
2389492b8a98ba72f865970447b62ab3d67343ac372730244073f3b549f0df62;10013252;Irving;TX;US;Southern
af40faaccd7e97ee8f3501fe1b470baccf644c0307622afadbc43c01094714fe;10019105;Mechanicsville;VA;US;Northeast
9758c9d773f150591a736534d874f430866249f15a346a69295101b2e7c4c7ca;10027370;Madrid;Não informado;UK;International
54ec93afeaa8962363957441edc7d3ed3c81038aebfac5b5c856e3ec0c560b6f;10015789;Jeddah;Não informado;AU;International
ac6f631857fe77c9f9180698860f9797d8102f33988bd8954a07deb713e2b4d9;10002506;Salt Lake City;UT;US;Western
23c419e561803cd7d53f0805e3539d785cf5c1695102ba4e7cf5b3088d7908fd;10013011;112 Reyjavik;Não informado;AU;International
7fbb61e0b53424533d845a9864504218e10330417c58faff333fdf492bbd4023;10006805;Miami;FL;US;Southern
5dc1b327819802261a2206223a849cd93e66e0a5f082ecdf9897598dca58848c;10027082;Edmonton;AB;CA;Canada
48d29e2ecb5eb07d0a5da9a7af7e7c2435ae18198d5491410c4c0561c9c150f0;10027583;Morton;IL;US;Central
059ad1c4ff756121830a6a12a1a753606d135b1cddfe683d02539cb9ea78cd2c;10007355;Amarillo;TX;US;Southern
6e29872757927e91cd9abfabe4e7923fae9e6e6b9ee2ef951d1a50bc8aba6b66;10025040;San Antonio;TX;US;Southern
53afa81fb597df450099696c9329dc0b312a45f11c156c6ddbe81c1579da23a0;10013765;St Louis;MO;US;Central
e3702f371f83d5f165a413c98a2e697262972103391dd78afcc34f2af796d3dc;10024270;Maxwell;CA;US;Western
d7f02d3a02ea1e6b11baa7d065903ff6180ca9023416360911ba808db82cc878;10000481;Chicago;IL;US;Central
6a16509644ef944e81fec484c18c31e4fe8423044059527689d85cd7c0539762;10024248;Portland;OR;US;Western
1ff994054646c272af0925c59715a4a730359760d82e0c18333ee71cf5aed674;10026843;Tulare;CA;US;Western
87078f800b4596a65c6ab381b5c7ebd5ab0589ff59eb451f286548c35fcd103c;10010887;Edmonton;AB;CA;Canada
243a70f998d8422695ab46095117e1481dfb44ba86bd57038899756f7b21b1f7;10002526;EE 0026 Tallinn;Não informado;UK;International
04d39745424c7431c6389a2ead88fe2f5f69d67e322d5751b95e868328e45e18;10014810;Canton;OH;US;Central
4434159692ed9bc019c5442fcc5f0aed299838cfc83993cb236045502c460574;10009639;Industriestrasse 17;Não informado;UK;International
0765aee34a319385e63e8587ee556b95e320f0867846fb81f75a349811528201;10007117;Taipei;Não informado;AU;International
6302f58f6eb1054ed1e3a69a51e21ca3a51424212c6389b78a1140c9aab18fb5;10007591;FIN 00710;Não informado;UK;International
ca68c826b6316234ee35efd39a453a53eb78fd0d8d6532181b7d3477b09ae70f;10025062;Bedford Hills;NY;US;Northeast
33cbf1ee4053dfa37f66dba4d9c5314a14d5502540562ab7dbc14fc937fe6039;10026081;Bremen;Não informado;UK;International
7fde8f6da3ea663eaf50f33d6d9ead5a26e6fec3071c0a8821e234f0eb573c69;10017314;El Paso;TX;US;Southern
9d22ad0bdbe9b2bb9fefbb8933e7f9d6fa879004996a95f1eceb236f75557258;10006037;Miami;FL;US;Southern
fa0ac43a86d54b6e2567265b2498172ef33225daa0d835464649fe52552d4991;10019665;Hammond;IN;US;Central
37c42e1b5fb906e02002cd720c76e5ae0e0128976e4dfdc8bba81921631f8eb2;10002220;Prince George;BC;CA;Canada
d1f2ce0b1371d621988652de8ad6a124870f14034e5535d764bc59f356930fb7;10023241;North Little Rock;AR;US;Southern
494c12ace8217fc30cc5676ea20215395786f6437f74a018081d3857d144d914;10025304;Não informado;Não informado;UK;International
b814dfb07abd609b3d7262e337c1e8b65006df6fa26b54c16c807d191d66cefd;10021203;Costa Mesa;CA;US;Western
c8ef30cfc6e17184db158c2eb76a4e5597bffe2839adee394ae9f6eba311f867;10002244;Statesville;NC;US;Southern
aa2f5e3f96084abf0abfbdd93c9c05d7723e76d02760839bf217dc28a3e691cc;10012422;Saginaw;AL;US;Southern
86410e5b6482d45c29bf617e2c658d8518280a8941bc9c87ff23655df535aacd;10026861;Salt Lake City;UT;US;Western
8eda2a356ea3a5db629c1c638a06950de16a4ea4a8cbe429526d2827422e6c67;10025264;Tuscon;AZ;US;Western
40eabdfccd9189e7bd0965568082e466bfb835d2249e5b267fe32413e7cca561;10009863;Beijing 100088;Não informado;UK;International
e83259f985a1b02d43fb4b7fb948407ce9b9a55332264ceee004a4709cf92f34;10017307;Anjou;QU;CA;Canada
225ddc211caa6c4dc4aa21001c00a3d6f97b56c391dbd29419a4b9b416d34e9e;10026581;Savannah;GA;US;Southern
21c9f0991d97079af3ed03d357e23741404efefb2ea652d756193a981184b603;10021986;Livonia;MI;US;Central
6f7087d7a5c83589bc347a93c3d1c9cd078dbe60c9c331142d954bb3626a9816;10010970;Irving;TX;US;Southern
be3b8fd789a96d96fa6da283ce4c84a768987a1d6092295c19a0a0dd5a5b264b;10000475;Charlotte;NC;US;Southern
9568c73400f26386a0617336ce9afb2a7ba673ae54aae24709c2a58aed0fc0e2;10021459;Olive Branch;MS;US;Southern
abff3b1b1f0aa7ad31c557be1bd645301fe8ca2d7e1a499eb2892a68314ee9d7;10000462;Hazelwood;MO;US;Central
aafb81928dddff339d3917a1b76cd6da1d4610991cef426c5d2d060754aed67c;10004302;Baton Rouge;LA;US;Southern
2c60628c6fd6b69a9bec469a0258ee3c73b869679e7b704049e61e72684b582d;10025305;Colorado Springs;CO;US;Western
9e2c6171bbce5c5ed90a9813a3651d15ee4731a81e617eee9a6f87b801d72b46;10007122;Buda;TX;US;Southern
db58c53c9ddb47a1130993500675cabfb31bd2f4f020c30991663c5cc3f3922c;10020388;Glen Burnie;MD;US;Northeast
d86207832a1bf793334be3292e03a6d1f9ccda4609b3c0fd2ad511e933f9c0e2;10010923;Seocho-GU;Não informado;AU;International
856b9cd90958b5a710609347131b4be2ad30e4d0e4c1edf19f460c3956dba1bc;10025575;Beamsville;ON;CA;Canada
7ae39c54b35ec5b5ab52f790cf9ab7d0e8fb6b5c74f3695afbbb0eb6e84d1a1b;10015267;Sollinge Molle;Não informado;UK;International
867d5d60ac880a1efd1a4cbb986e7fbd759f36de7f102478d99d184e4ccadf73;10025247;Pittsburgh;PA;US;Northeast
b90d48ed5cac354c2b4b2eca5895a15d6854c243f9e2072166c327b809789bfe;10020663;Sparks;NV;US;Western
ee83db337910de80bd6027c579bac5f7537a644ee2321ccccf9367d0a8e63eb0;10018129;ZI 1 Ducos;Não informado;IR;International
9ea4eb80ff073a10ebabdfe6acc21811d808ab47c79950830e560b1c1b785012;10010717;Waterville;KS;US;Central
73544f0d50cda23959c33252b93254118fe5c92e4e8c2ec1a0c23f8a48bfbac1;10022201;Carcas;Não informado;UK;International
0a3422bd13973d523dbe8bf5eb770fe27dc80c7e25ed6ce32fcafba28f0b30bd;10025037;San Marcos;CA;US;Western
e401991d791b736eae8df12baf7aba5e970ad727d367ed82d80245078cb4f729;10013238;Janesville;WI;US;Central
98635e7052aad95500bf353e98d81cb8b84d89513c38f0afcdb5e50afbc96061;10027050;Milwaukie;WI;US;Central
4bf89f95fef4db2c67d95d2a010d515fa31e8ec8fb0a210fec40aa41ee46d37f;10025583;Nesquehoning;PA;US;Northeast
118bd30799fd48db82654438170ba4df23ba47a8040d7ff4b123b2f83f258925;10021175;Johnson City;TN;US;Southern
f0fb2542e2e17bc8ef5945cb78fc3d106a231d59a140d1890bf0d233c6957d8a;10026268;Surrey;BC;CA;Canada
f5485bd5e06c7a4a2349531ab8fe6791d4cc3c0599a39b8eabde56f85fd4a8ab;10025269;Overland Park;KS;US;Central
ce0b5efc608eff2e075fe005031b1574b21192d70a6973891d69b43b7b68f6b6;10026078;Bedford;OH;US;Central
84ff90529b0d7926cb5181e840148d87a4e797920b5d3063d05154f32bf92279;10022490;Overland Park;KS;US;Central
51ad5edbcfc33bb35bea07d4481b7202e8ce5ab557902d0a766680a60b1f93ad;10014546;Phoenix;AZ;US;Western
0ee1311b65b8fc88b7ba05840ae3a75e4124b380bc65646422683b4fa46636e5;10010897;Whitehouse;TN;US;Southern
553fa6cd655d6f4f1d09e1ba9ffa4da32595fb2d4efd7ffcf2085e5ae72ffd1c;10025508;Moncton;NB;CA;Canada
f048efc7767f3413a5e4790232aaadd63a66c564a3e917d25df94fea8a511737;10009652;Valcourt;QU;CA;Canada
d89df789b2c816e240a8014d1bef3536eb46259eb287e9cac54686ecb1e78f37;10024010;Mitchell;SD;US;Central
aa1c6471af4036f4e694a76af05e7945f712680e4ca3f3831a7386235d5916b5;10008593;Highland;IL;US;Central
3339cf4bc6297a6fcd6f07294e6d149343bb244bde12a72d5afdbe9efdf19209;10016588;Schertz;TX;US;Southern
79e89a3de03f2f44ce8631bf24aac27bd75d07116a74a91827a7c94620504f54;10021470;Wrightsville;PA;US;Northeast
7a3d029d05dfa2afc8678545758c8cb7a4f745bf1e551b30d00cf579ca47718d;10022249;Shelby;NC;US;Southern
2d7304512ce1cc8a57ce737d53d98b78a9ae4e66a23fa4974861558cd2463751;10009656;Trinity Center;CA;US;Western
425103870c0a59cf8e89ebaa158863ff83da4987eb85742e62bfa05bed94ab7a;10024006;Columbiana;OH;US;Central
be692f59ce34aff4b48ca81cc361690f230dca6c851d27979cb4e5f106747bf8;10025298;Toronto;ON;CA;Canada
3f2b7097da2d7d93bd45b543e73d19aa58cfc964e0b7b8c43c545e1fe1392309;10002969;Manassas;VA;US;Northeast
1c098d892f6f8e894562a2244bfbcc142d40e39688dcb0717c0b295f120d7b65;10022725;Norcross;GA;US;Southern
ca07f3f656b2fba2fa0828b01abd5f145c025cc97e2fc132f10b54b6accd9ee3;10026006;Calgary;AB;CA;Canada
1f5ef1afe7a4f816b841218decef95d8eaa76d3b428be7b32c2f9406dc2501ce;10009623;Gretna;LA;US;Southern
63e481dbc059d75f999f82781c709e38bdfee0bc2a522d4d3bf6249b1fa001a8;10021485;Hamel;MN;US;Central
80dcea0dc083b4a06ded92de526e31e8e5fb2259b310120a239d3a58f3f64db3;10025061;Canton;OH;US;Central
76fc56055894fef70441d0147b7af530d5167337eff89b371f92969f5b4b3c21;10000458;Saginaw;MI;US;Central
ade9b11b69373832d02166ef79932b967882b054dc8043b266ae4c4b8e6b10fa;10016807;Overland Park;KS;US;Central
